NORAD_CAT_ID,OBJECT_NAME,OBJECT_TYPE,EPOCH,MEAN_MOTION,ECCENTRICITY,INCLINATION,RA_OF_ASC_NODE,ARG_OF_PERICENTER,MEAN_ANOMALY,BSTAR,MEAN_MOTION_DOT,MEAN_MOTION_DDOT,TLE_LINE0,TLE_LINE1,TLE_LINE2,SEMIMAJOR_AXIS,PERIOD,APOGEE,PERIGEE,DECAYED
50820.0,STARLINK-3339,PAYLOAD,2022-05-15 22:00:00,15.08807942,0.0001958,53.2157,306.0185,51.0438,253.1763,0.0039094,0.00062427,0.0,0 STARLINK-3339,1 50820U 22001T   22135.91667824  .00062427  00000-0  39094-2 0  9994,2 50820  53.2157 306.0185 0001958  51.0438 253.1763 15.08807942 21270,6917.978,95.44,541.198,538.489,0.0
50820.0,STARLINK-3339,PAYLOAD,2022-05-16 14:00:01,15.08844594,0.000178,53.2161,303.0241,54.5381,272.8577,-0.0011414,-0.0001841,0.0,0 STARLINK-3339,1 50820U 22001T   22136.58334491 -.00018410  00000-0 -11414-2 0  9990,2 50820  53.2161 303.0241 0001780  54.5381 272.8577 15.08844594 21379,6917.866,95.437,540.9630000000002,538.5,0.0
50820.0,STARLINK-3339,PAYLOAD,2022-05-16 22:00:00,15.08810975,0.0001869,53.216,301.5289,46.2382,292.7598,0.002072,0.00032816,0.0,0 STARLINK-3339,1 50820U 22001T   22136.91667824  .00032816  00000-0  20720-2 0  9990,2 50820  53.2160 301.5289 0001869  46.2382 292.7598 15.08810975  1301,6917.969,95.439,541.127,538.5409999999998,0.0
50820.0,STARLINK-3339,PAYLOAD,2022-05-17 12:00:00,15.0885758,0.0001702,53.2166,298.9084,52.4231,216.8389,-0.00046753,-7.725e-05,0.0,0 STARLINK-3339,1 50820U 22001T   22137.50001157 -.00007725  00000-0 -46753-3 0  9995,2 50820  53.2166 298.9084 0001702  52.4231 216.8389 15.08857580 21510,6917.8269999999975,95.436,540.869,538.514,0.0
50820.0,STARLINK-3339,PAYLOAD,2022-05-17 14:00:01,15.088758300000002,0.0001733,53.2167,298.5348,49.2077,313.0155,-0.0034066,-0.0005415,0.0,0 STARLINK-3339,1 50820U 22001T   22137.58335648 -.00054150  00000-0 -34066-2 0  9995,2 50820  53.2167 298.5348 0001733  49.2077 313.0155 15.08875830  1300,6917.771,95.435,540.835,538.437,0.0
50820.0,STARLINK-3339,PAYLOAD,2022-05-17 22:00:01,15.08833321,0.0001793,53.2166,297.0395,40.2168,333.6327,0.00042799,6.529e-05,0.0,0 STARLINK-3339,1 50820U 22001T   22137.91668981  .00006529  00000-0  42799-3 0  9999,2 50820  53.2166 297.0395 0001793  40.2168 333.6327 15.08833321  1301,6917.901,95.438,541.006,538.525,0.0
50820.0,STARLINK-3339,PAYLOAD,2022-05-18 14:00:01,15.08874184,0.0001703,53.2172,294.0458,43.807,353.152,-0.0030816,-0.00049044,0.0,0 STARLINK-3339,1 50820U 22001T   22138.58334491 -.00049044  00000-0 -30816-2 0  9996,2 50820  53.2172 294.0458 0001703  43.8070 353.1520 15.08874184 21673,6917.776,95.435,540.819,538.4630000000002,0.0
50820.0,STARLINK-3339,PAYLOAD,2022-05-18 22:00:00,15.08831386,0.0001829,53.217,292.5505,38.6273,9.953,-0.00020976,-3.624e-05,0.0,0 STARLINK-3339,1 50820U 22001T   22138.91667824 -.00003624  00000-0 -20976-3 0  9993,2 50820  53.2170 292.5505 0001829  38.6273   9.9530 15.08831386  1305,6917.906999999997,95.438,541.0369999999998,538.506,0.0
50820.0,STARLINK-3339,PAYLOAD,2022-05-19 06:00:00,15.08798087,0.0001599,53.2173,291.0524,42.9965,17.1756,0.0036824,0.00058739,0.0,0 STARLINK-3339,1 50820U 22001T   22139.25001157  .00058739  00000-0  36824-2 0  9995,2 50820  53.2173 291.0524 0001599  42.9965  17.1756 15.08798087 21777,6918.009,95.44,540.98,538.7669999999998,0.0
50820.0,STARLINK-3339,PAYLOAD,2022-05-19 14:00:01,15.08862713,0.0001756,53.2174,289.557,43.5219,28.2717,-0.003909,-0.00062004,0.0,0 STARLINK-3339,1 50820U 22001T   22139.58335648 -.00062004  00000-0 -39090-2 0  9996,2 50820  53.2174 289.5570 0001756  43.5219  28.2717 15.08862713  1300,6917.811,95.436,540.891,538.461,0.0
50820.0,STARLINK-3339,PAYLOAD,2022-05-19 22:00:00,15.08824407,0.0001929,53.217,288.0616,40.17,43.1655,0.0016879,0.00026666,0.0,0 STARLINK-3339,1 50820U 22001T   22139.91667824  .00026666  00000-0  16879-2 0  9999,2 50820  53.2170 288.0616 0001929  40.1700  43.1655 15.08824407 21870,6917.928000000001,95.439,541.128,538.4590000000002,0.0
50820.0,STARLINK-3339,PAYLOAD,2022-05-20 14:00:01,15.08844991,0.0001801,53.2174,285.0658,43.0065,63.5034,-0.0021634,-0.00034559,0.0,0 STARLINK-3339,1 50820U 22001T   22140.58334491 -.00034559  00000-0 -21634-2 0  9992,2 50820  53.2174 285.0658 0001801  43.0065  63.5034 15.08844991 21970,6917.865,95.437,540.976,538.484,0.0
50820.0,STARLINK-3339,PAYLOAD,2022-05-20 22:00:00,15.08821802,0.0001987,53.2169,283.565,39.7797,78.3226,-0.0033765,-0.000536,0.0,0 STARLINK-3339,1 50820U 22001T   22140.91667824 -.00053600  00000-0 -33765-2 0  9994,2 50820  53.2169 283.5650 0001987  39.7797  78.3226 15.08821802  1306,6917.936,95.439,541.1759999999998,538.4259999999998,0.0
50820.0,STARLINK-3339,PAYLOAD,2022-05-21 06:00:00,15.08818886,0.0001587,53.2165,282.0748,43.8641,85.8117,0.0016721,0.00026408,0.0,0 STARLINK-3339,1 50820U 22001T   22141.25001157  .00026408  00000-0  16721-2 0  9990,2 50820  53.2165 282.0748 0001587  43.8641  85.8117 15.08818886 22071,6917.945,95.439,540.908,538.712,0.0
50820.0,STARLINK-3339,PAYLOAD,2022-05-21 14:00:01,15.08860781,0.0001771,53.2165,280.5797,44.1034,97.2194,-0.0018697,-0.00029938,0.0,0 STARLINK-3339,1 50820U 22001T   22141.58335648 -.00029938  00000-0 -18697-2 0  9998,2 50820  53.2165 280.5797 0001771  44.1034  97.2194 15.08860781  1309,6917.816999999999,95.436,540.9069999999998,538.457,0.0
50820.0,STARLINK-3339,PAYLOAD,2022-05-21 22:00:00,15.08854932,0.000187,53.2158,279.0838,40.2213,112.6596,-0.0014074,-0.00022627,0.0,0 STARLINK-3339,1 50820U 22001T   22141.91667824 -.00022627  00000-0 -14074-2 0  9992,2 50820  53.2158 279.0838 0001870  40.2213 112.6596 15.08854932  1305,6917.835,95.437,540.993,538.406,0.0
50820.0,STARLINK-3339,PAYLOAD,2022-05-22 14:00:01,15.08820793,0.0002036,53.2157,276.0907,45.629,130.5066,-0.0020243,-0.00032345,0.0,0 STARLINK-3339,1 50820U 22001T   22142.58334491 -.00032345  00000-0 -20243-2 0  9990,2 50820  53.2157 276.0907 0002036  45.6290 130.5066 15.08820793 22275,6917.939,95.439,541.2130000000002,538.396,0.0
50820.0,STARLINK-3339,PAYLOAD,2022-05-22 22:00:01,15.08821746,0.0002151,53.2152,274.5945,42.7753,144.9929,0.0017155,0.00027106,0.0,0 STARLINK-3339,1 50820U 22001T   22142.91668981  .00027106  00000-0  17155-2 0  9996,2 50820  53.2152 274.5945 0002151  42.7753 144.9929 15.08821746 22327,6917.936,95.439,541.289,538.313,0.0
50820.0,STARLINK-3339,PAYLOAD,2022-05-23 14:00:01,15.08825717,0.0002058,53.2154,271.6016,43.402,167.4466,-1.5331e-05,-5.32e-06,0.0,0 STARLINK-3339,1 50820U 22001T   22143.58334491 -.00000532  00000-0 -15331-4 0  9998,2 50820  53.2154 271.6016 0002058  43.4020 167.4466 15.08825717  1300,6917.924,95.438,541.2130000000002,538.365,0.0
50820.0,STARLINK-3339,PAYLOAD,2022-05-23 16:00:00,15.08818158,0.0002124,53.2154,271.2278,42.2483,261.4963,0.001351,0.00021266,0.0,0 STARLINK-3339,1 50820U 22001T   22143.66667824  .00021266  00000-0  13510-2 0  9996,2 50820  53.2154 271.2278 0002124  42.2483 261.4963 15.08818158 22446,6917.946999999999,95.439,541.2819999999998,538.3430000000002,0.0
50820.0,STARLINK-3339,PAYLOAD,2022-05-23 22:00:01,15.08852606,0.0002087,53.2151,270.1052,39.8202,182.6669,-0.000516,-8.494e-05,0.0,0 STARLINK-3339,1 50820U 22001T   22143.91668981 -.00008494  00000-0 -51600-3 0  9992,2 50820  53.2151 270.1052 0002087  39.8202 182.6669 15.08852606  1305,6917.842,95.437,541.151,538.263,0.0
50820.0,STARLINK-3339,PAYLOAD,2022-05-24 14:30:20,15.08838075,0.0001798,53.2186,267.0151,52.7619,307.3537,8.039600000000001e-05,9.92e-06,0.0,0 STARLINK-3339,1 50820U 22001T   22144.60440953  .00000992  00000-0  80396-4 0  9994,2 50820  53.2186 267.0151 0001798  52.7619 307.3537 15.08838075 21308,6917.886,95.438,540.995,538.507,0.0
50820.0,STARLINK-3339,PAYLOAD,2022-05-24 22:00:00,15.08836572,0.0001979,53.2154,265.6157,33.247,223.9325,-0.0028922,-0.00046021,0.0,0 STARLINK-3339,1 50820U 22001T   22144.91667824 -.00046021  00000-0 -28922-2 0  9996,2 50820  53.2154 265.6157 0001979  33.2470 223.9325 15.08836572 22638,6917.891,95.438,541.125,538.387,0.0
50820.0,STARLINK-3339,PAYLOAD,2022-05-25 14:00:01,15.08825145,0.0002011,53.216,262.623,34.7109,245.6017,0.00014587,2.033e-05,0.0,0 STARLINK-3339,1 50820U 22001T   22145.58334491  .00002033  00000-0  14587-3 0  9997,2 50820  53.2160 262.6230 0002011  34.7109 245.6017 15.08825145 22731,6917.926,95.438,541.182,538.4,0.0
50820.0,STARLINK-3339,PAYLOAD,2022-05-25 19:07:19,15.08826735,0.0001868,53.2183,261.6624,41.9933,318.1202,5.3083e-05,5.57e-06,0.0,0 STARLINK-3339,1 50820U 22001T   22145.79674914  .00000557  00000-0  53083-4 0  9991,2 50820  53.2183 261.6624 0001868  41.9933 318.1202 15.08826735 21485,6917.920999999999,95.438,541.078,538.494,0.0
50820.0,STARLINK-3339,PAYLOAD,2022-05-26 06:00:00,15.08840482,0.0001879,53.2165,259.6284,38.4633,265.0271,0.0012256,0.00019272,0.0,0 STARLINK-3339,1 50820U 22001T   22146.25001157  .00019272  00000-0  12256-2 0  9995,2 50820  53.2165 259.6284 0001879  38.4633 265.0271 15.08840482 22835,6917.879,95.438,541.044,538.444,0.0
50820.0,STARLINK-3339,PAYLOAD,2022-05-26 12:36:32,15.08845892,0.0001906,53.2192,258.394,40.5316,319.5818,0.00016394,2.322e-05,0.0,0 STARLINK-3339,1 50820U 22001T   22146.52537803  .00002322  00000-0  16394-3 0  9993,2 50820  53.2192 258.3940 0001906  40.5316 319.5818 15.08845892 22879,6917.861999999999,95.437,541.0459999999998,538.409,0.0
50820.0,STARLINK-3339,PAYLOAD,2022-05-26 18:58:05,15.08834588,0.0001692,53.2166,257.2034,40.4066,319.7052,0.00011173,1.49e-05,0.0,0 STARLINK-3339,1 50820U 22001T   22146.79034463  .00001490  00000-0  11173-3 0  9991,2 50820  53.2166 257.2034 0001692  40.4066 319.7052 15.08834588 22912,6917.897,95.438,540.932,538.591,0.0
50820.0,STARLINK-3339,PAYLOAD,2022-05-27 14:02:44,15.08830851,0.0001943,53.2174,253.6358,37.448,322.6648,0.00011307,1.511e-05,0.0,0 STARLINK-3339,1 50820U 22001T   22147.58523518  .00001511  00000-0  11307-3 0  9996,2 50820  53.2174 253.6358 0001943  37.4480 322.6648 15.08830851 21759,6917.908,95.438,541.118,538.429,0.0
